#,Power Plant Type,COMPANY NAME,PROJECT NAME,Type ,City,Installed Capacity (MWm),Installed Capacity (MWe),Capacity Under Construction (Mwe),Service Capacity (Mwe),Longtitude,Latitude,Longtitude_old,Latitude_old,Coordinate Ref.
391,Hydropower Plant,BOYDAK ENERJİ ÜRETİM VE TİCARET A.Ş.,Umut Reg. Ve HPP,Weir,ORDU,44.144,42.25,0,42.25,37.066686 ,40.701361 ,,,
502,Hydropower Plant,ANADOLU ELEKTRİK ÜRETİM TİCARET SANAYİ ANONİM ŞİRKETİ,Çakırlar HPP,,ARTVİN,16.488,16.206,0,16.206,41.546173,41.202243,,,
473,Hydropower Plant,ATABEY ENERJİ ÜRETİM SANAYİ VE TİCARET ANONİM ŞİRKETİ,Uzundere II HPP,Weir,RİZE,20.502,19.687,0,19.687,40.924312,40.77195,,,
472,Hydropower Plant,ADV ELEKTRİK ÜRETİM LİMİTED ŞİRKETİ,Fındık Reg. ve HPP,Weir,TRABZON,20.272,19.75,0,19.75,40.698112,39.14772,,,
518,Hydropower Plant,YEŞİLIRMAK ELEKTRİK ENERJİ ÜRETİM ANONİM ŞİRKETİ,Yeşilırmak I Reg. ve HPP,,TOKAT,14.69,14.25,0,14.25,40.286033,37.406902,,,
474,Hydropower Plant,TEMMUZ ELEKTRİK ÜRETİM LİMİTED ŞİRKETİ,Onur Reg. ve HPP,Weir,TOKAT,20.82,19.568,0,19.568,40.493782,37.263222,,,
425,Hydropower Plant,MEM ENERJİ ELEKTRİK ÜRETİM SANAYİ VE TİCARET ANONİM ŞİRKETİ,Gökkaya Barajı ve HPP,Dam,Adana,29.46,28.54,0,28.54,37.888116,35.998077,,,
386,Hydropower Plant,BAREN ENERJİ ÜRETİM SANAYİ VE TİCARET LİMİTED ŞİRKETİ,Kirazlık Reg. ve HPP,Weir,SİİRT,47.91,46.111,0,46.111,37.92305556,42.06055556,,,Google Maps
504,Hydropower Plant,İLK ELEKTRİK ENERJİ ÜRETİMİ SANAYİ TİCARET ANONİM ŞİRKETİ,Ayancık HPP,,SİNOP,17.58,15.6,0,15.6,34.57587561655,41.9070413275103,,,DSİ
367,Hydropower Plant,ELEKTRİK ÜRETİM ANONİM ŞİRKETİ,Derbent HPP,Dam,SAMSUN,56.4,56.4,0,56.4,35.8390930275426,41.4633113511966,,,
478,Hydropower Plant,ATİ İNŞAAT ENERJİ ÜRETİM VE TİCARET LİMİTED ŞİRKETİ,Diyoban HPP,Weir,ARTVİN,19.63,19.04,0,19.04,42.2453993597416,41.4212767779815,,,DSİ
438,Hydropower Plant,ELİTE ELEKTRİK ÜRETİMİ VE ELEKTRONİK MAKİNE SANAYİ TİCARET LİMİTED ŞİRKETİ,Papart Regülatörü ve HPP,Weir,ARTVİN,27.85,26.6,0,26.6,42.2838259733845,41.3945850796949,,,DSİ
300,Hydropower Plant,ELEKTRİK ÜRETİM ANONİM ŞİRKETİ,Altınkaya HPP,Dam,SAMSUN,702.55,702.55,0,702.55,35.7300305796879,41.3624683591309,,,
301,Hydropower Plant,ELEKTRİK ÜRETİM ANONİM ŞİRKETİ,Deriner HPP,Dam,ARTVİN,683.2,669.6,0,669.6,41.676722,41.349173,,,
306,Hydropower Plant,ELEKTRİK ÜRETİM ANONİM ŞİRKETİ,Borçka HPP,Dam,ARTVİN,300.6,300.6,0.600000000000023,300,41.690025,41.343825,,,
303,Hydropower Plant,BOYABAT ELEKTRİK ÜRETİM VE TİCARET ANONİM ŞİRKETİ,Boyabat HPP,Dam,SAMSUN,528,513,0,513,35.0079592097303,41.3423735885567,,,
459,Hydropower Plant,BOYDAK ENERJİ ÜRETİM VE TİCARET A.Ş.,Erenköy Reg. Ve HPP,Weir,ARTVİN,23.196,22.5,0,22.5,41.6238600921227,41.3087341821543,,,Google Maps
408,Hydropower Plant,AKSU MADENCİLİK SANAYİ VE ELEKTRİK ÜRETİM TİCARET ANONİM ŞİRKETİ,Tefen HPP,Weir,KARABÜK,36.75,33,0,33,32.1440815718199,41.2938738761842,845375.534007,4981209.30172,DSİ -HES
449,Hydropower Plant,ETİ BAKIR ANONİM ŞİRKETİ,Murgul HPP,Weir,ARTVİN,24.7,24.2,0,24.2,41.5608713846687,41.2740433349681,1634315.04041,5009894.99673,DSİ-HES
552,Hydropower Plant,CANSU ELEKTRİK ÜRETİM ANONİM ŞİRKETİ,Cansu HPP,,ARTVİN,11.34,11,0,11,41.5479944446211,41.2357620787634,,,DSİ
398,Hydropower Plant,AYEN ENERJİ ANONİM ŞTİ.,Paşalar HPP,Weir,RİZE,41.5,40,0,40,41.32073342,41.21122987,,,HES
298,Hydropower Plant,ELEKTRİK ÜRETİM ANONİM ŞİRKETİ,Karakaya HPP,Dam,DİYARBAKIR,1800,1800,0,1800,32.4478083342465,41.1976205648268,,,
508,Hydropower Plant,ARTIDEĞER ENERJİ MÜH.KİM.MEDİ.VE GIDA MAD.SAN.TİC.AŞ.,Tokat-Suçatı I-II Reg. ve HPP,,TOKAT,14.97,14.493,14.493,0,32.4832055611178,41.1648017207891,,,DSİ
538,Hydropower Plant,REŞADİYE HAMZALI ELEKTRİK ÜRETİM SANAYİ VE TİCARET ANONİM ŞİRKETİ,Aralık HPP,,ARTVİN,12.9,12.41,0,12.41,31.4458204783649,41.1379342644918,,,HES
356,Hydropower Plant,ELEKTRİK ÜRETİM ANONİM ŞİRKETİ,Suat Uğurlu HPP,Dam,SAMSUN,69,69,0,69,36.66949042,41.07647563,,,
525,Hydropower Plant,MERTLER ENERJİ ÜRETİM PAZARLAMA ANONİM ŞİRKETİ,Saray HPP,,RİZE,15.45,13.5,0,13.5,40.35141,40.991301,,,
553,Hydropower Plant,GÜRSU TEMİZ ENERJİ ÜRETİM ANONİM ŞİRKETİ,Arca HPP,,TRABZON,17.58,16.35,16.35,0,40.936376,40.976209,,,
418,Hydropower Plant,ADACAMİ ENERJİ EL. ÜR. SANAYİ VE TİCARET ANONİM ŞİRKETİ,Adacami HPP,Weir,RİZE,29.902,29.304,0,29.304,40.6113562,40.97177452,,,HES
305,Hydropower Plant,ELEKTRİK ÜRETİM ANONİM ŞİRKETİ,HASAN Uğurlu HPP,Dam,SAMSUN,500,500,0,500,36.647902781926,40.9383974050369,,,
392,Hydropower Plant,MELET ENERJİ ELEKTRİK ÜRETİM VE TİCARET ANONİM ŞİRKETİ,Ordu HPP,Weir,ORDU,43.04,42,0,42,37.9338664781614,40.9064976358942,1331619.33145,4947467.07219,DSİ-HES
506,Hydropower Plant,ZORLU DOĞAL ELEKTRİK ÜRETİMİ A.Ş.,Çıldır Regülatörü ve HPP,,KARS,15.36,15.36,0,15.36,43.3271022731741,40.9021614435195,"1785205,8376 (Çıldır II)","4978154,23254 (Çıldır II)",HES
395,Hydropower Plant,SANKO ENERJİ SANAYİ VE TİCARET ANONİM ŞİRKETİ,Yokuşlu Kalkandere HPP,Weir,RİZE,41.19,40.24,0,40.24,40.44471963,40.89822443,,,HES
515,Hydropower Plant,ARSAN HİDROELEKTRİK ÜRETİM A.Ş.,Köprübaşı Reg. Ve HPP,,GÜMÜŞHANE,15.5,14.66,0,14.66,37.1527671411175,40.8963549381198,,,DSİ
562,Hydropower Plant,MARTI ELEKTRİK ÜRETİM ANONİM ŞİRKETİ,Çay Reg. Ve HPP,,GİRESUN,10.439,10.049,0,10.049,38.7848499227759,40.8915399028227,,,DSİ
335,Hydropower Plant,AKKÖY ENERJİ ANONİM ŞİRKETİ,Akköy 1 HPP,Dam,GÜMÜŞHANE,103.5,101.94,0,101.94,38.9988556355193,40.8913776886999,,,HES
483,Hydropower Plant,DERYA ELEKTRİK ÜRETİM VE TİCARET ANONİM ŞİRKETİ,Pirinçli Reg. ve HPP,,ÇORUM,19.51,18.68,0,18.68,34.851379,40.890677,,,
501,Hydropower Plant,DARBOĞAZ ELEKTRİK ÜRETİM SANAYİ VE TİCARET LİMİTED ŞİRKETİ,Alabalık Reg. ve HPP,,ERZURUM,16.8,16.32,0,16.32,42.247925,40.880295,,,
339,Hydropower Plant,SANKO ENERJİ SANAYİ VE TİCARET ANONİM ŞİRKETİ,Cevizlik HPP,Weir,RİZE,92.96,91.4,0,91.4,40.4916777433851,40.8582664087792,,,HES
527,Hydropower Plant,SİİRT AKKÖY ENERJİ ÜRETİM ANONİM ŞİRKETİ,Akköy-Espiye Regülatörü ve HPP,,GİRESUN,14.07,13.368,0,13.368,38.634109,40.855371,,,
361,Hydropower Plant,İDİL İKİ ENERJİ SANAYİ VE TİCARET ANONİM ŞİRKETİ,Kozbükü HPP,Weir,ORDU,67.761,62.34,0,62.34,37.8247843970392,40.8340210893876,,,DSİ
442,Hydropower Plant,REDAŞ ELEKTRİK ÜRETİM DAĞITIM PAZARLAMA SANAYİ VE TİCARET ANONİM ŞİRKETİ,Çaykara Reg. ve HPP,Weir,TRABZON,27,25.92,0,25.92,40.2709330198582,40.8159536623289,,,HES
351,Hydropower Plant,KLK ENERJİ ÜRETİM ANONİM ŞİRKETİ,Doğankent HPP,Weir,GİRESUN,74.5,74.5,0,74.5,38.9125751594614,40.7961316502366,,,HES
406,Hydropower Plant,SANKO RÜZGAR ENERJİSİ SANAYİ VE TİCARET ANONİM ŞİRKETİ,Koçlu HPP,Weir,GİRESUN,36.7,35.6,0,35.6,38.6529570117226,40.7945930200477,,,HES
311,Hydropower Plant,ELEKTRİK ÜRETİM ANONİM ŞİRKETİ,Obruk HPP,Dam,ÇORUM,212.4,212.4,1.59999999999999,210.8,34.7904397440856,40.767128038067,,,
491,Hydropower Plant,KARAKJRT ENERJİ ÜRETİM ANONİM ŞİRKETİ,Kale Reg. ve HPP,,KARS,17.82,17.1,0,17.1,43.643188,40.763901,,,
560,Hydropower Plant,BND ELEKTRİK ÜRETİM ANONİM ŞİRKETİ,Üçgen-2 Reg. ve HPP,,ORDU,10.476,10.318,0,10.318,37.97287,40.763901,,,
364,Hydropower Plant,İDİL İKİ ENERJİ SANAYİ VE TİCARET ANONİM ŞİRKETİ,Olur HPP,Dam,ERZURUM,65.22,60,0,60,42.0718328769591,40.7630777866201,1683171.91341,4954588.23853,DSİ-HES
389,Hydropower Plant,ENERJİSA ENERJİ ÜRETİM ANONİM ŞİRKETİ,Çambaşı Reg. ve HPP,Weir,TRABZON,45,44.1,0,44.1,40.24885136,40.75954634,,,HES
375,Hydropower Plant,KARHES KARADENİZ HİDROELEKTRİK ENERJİDEN ELEKTRİK ÜRETİM SANTRALI LİMİTED ŞİRKETİ,Çırakdamı HPP,Weir,GİRESUN,58.66,49.1,0,49.1,38.434457833769,40.7586368162239,,,HES
505,Hydropower Plant,TRABZON ENERJİ ÜRETİM VE TİCARET ANONİM ŞİRKETİ,Kemerçayır Regülatörü ve HPP,,TRABZON,16.14,15.498,0,15.498,40.3611200667264,40.7513767558603,,,
310,Hydropower Plant,AKKÖY ENERJİ ANONİM ŞİRKETİ,Akköy 2 HPP,Dam,GİRESUN,233.6,229.6,0,229.6,38.96512708,40.73960414,,,HES
329,Hydropower Plant,YAPISAN ELEKTRİK ÜRETİM A.Ş.,Darıca HPP,Weir,ORDU,112.42,110.32,0,110.32,37.8633335655161,40.7156583178128,"1326392,45861 (Darıca I) 1327612,061 (Darıca II)","4922290,96721 (Darıca I) 4924555,945 (Darıca II)",DSİ-HES
374,Hydropower Plant,KARHES KARADENİZ HİDROELEKTRİK ENERJİDEN ELEKTRİK ÜRETİM SANTRALI LİMİTED ŞİRKETİ,Dereli HPP,Weir,GİRESUN,58.68,49.2,0,49.2,38.41904511,40.68383227,,,HES
347,Hydropower Plant,ÇANAKÇI HES ELEKTRİK ÜRETİM A.Ş.,Araklı Karadere Prj Erikli-Akocak Rg ve Akocak HPP,Weir,TRABZON,82.46,80.1,0,80.1,39.8988129269777,40.6807864607797,,,
542,Hydropower Plant,AK-SERPİN ELEKTRİK ÜRETİM TİCARET ANONİM ŞİRKETİ,Serpin Regülatörü ve HPP,,GİRESUN,13.42,12,0,12,38.07312,40.675431,,,
341,Hydropower Plant,KLK ENERJİ ÜRETİM ANONİM ŞİRKETİ,Kürtün HPP,Dam,GÜMÜŞHANE,85,85,0,85,39.1406531450435,40.6727730123352,,,
437,Hydropower Plant,2M ENERJİ ÜRETİM ANONİM ŞİRKETİ,Sırakonaklar HPP,Weir,ERZURUM,20.13,18,18,0,41.226812929688,40.6703769745853,1610261.38688,4938123.2565,DSİ-HES
496,Hydropower Plant,BERTA ELEKT.ÜR.A.Ş.,Tuzlaköy-Serge Reg. Ve HPP,,ERZURUM,17.34,16.66,0,16.66,42.1957704203195,40.66807821561,,,Google Maps
486,Hydropower Plant,ENSU ELEKTRİK ENERJİ ÜRETİM LİMİTED ŞİRKETİ,Çiğdem Reg. ve HPP,,GİRESUN,18.2,17.7,0,17.7,38.118439,40.665405,,,
353,Hydropower Plant,SANKO RÜZGAR ENERJİSİ SANAYİ VE TİCARET ANONİM ŞİRKETİ,Tepekışla Barajı ve HPP,Dam,TOKAT,70.617,69.627,-1.4210854715202E-14,69.627,36.704292,40.659025,,,
332,Hydropower Plant,KLK ENERJİ ÜRETİM ANONİM ŞİRKETİ,Torul HPP,Weir,GÜMÜŞHANE,105.6,103.26,0,103.26,39.2105748057492,40.6436152144598,,,HES
432,Hydropower Plant,YEDİGÖL HİDROELEKTRİK ÜRETİM VE TİCARET ANONİM ŞİRKETİ,Aksu (Yankol) HPP,Weir,ERZURUM,27.88,27.272,0,27.272,41.070328,40.635841,,,
358,Hydropower Plant,AYEN ENERJİ ANONİM ŞTİ.,Büyükdüz HPP,Weir,GÜMÜŞHANE,70.844,68.862,0,68.862,39.10568407,40.62171479,,,HES
426,Hydropower Plant,YENİ DORUK ENERJİ ELEKTRİK ÜRETİM ANONİM ŞİRKETİ,Doruk Reg. ve HPP,Weir,GİRESUN,28.894,28.278,0,28.278,38.306643131781,40.5663832582705,,,Google Maps
337,Hydropower Plant,SENERJİ ENERJİ ÜRETİM ANONİM ŞİRKETİ,Güllübağ Barajı ve HPP,Dam,ERZURUM,99,96,0,96,41.0460286564132,40.5432869794634,,,
543,Hydropower Plant,KAYEN BETA ENERJİ ELEKTRİK ÜRETİM SANAYİ VE TİCARET ANONİM ŞİRKETİ,Büyükbahçe HPP,,ERZURUM,12.1,11.7,0,11.7,41.369019,40.543026,,,
512,Hydropower Plant,İLCAN ELEKTRİK ÜRETİM ANONİM ŞİRKETİ,Yazyurdu Reg. ve HPP,,,15.52,14.9,0,14.9,41.0380833122069,40.5397136198829,,,
485,Hydropower Plant,ENTEK ENERJİ TEKNOLOJİLERİ SANAYİ VE TİCARET LİMİTED ŞİRKETİ,Boztepe HPP,,ORDU,18.54,18.15,0,18.15,37.689929,40.514125,,,
340,Hydropower Plant,ELEKTRİK ÜRETİM ANONİM ŞİRKETİ,Köklüce HPP,Dam,TOKAT,90,90,0,90,36.9266466354937,40.4936598887938,1248711.44171,4896383.76718,DSİ-HES
524,Hydropower Plant,İDOL ENERJİ ÜRETİM DAĞITIM PAZARLAMA SANAYİ VE TİCARET ANONİM ŞİRKETİ,Güzeloluk HPP,,GÜMÜŞHANE,13.99,13.58,0,13.58,39.0960906046717,40.4935015011961,,,Google Maps
440,Hydropower Plant,ELEKTRİK ÜRETİM ANONİM ŞİRKETİ,Tortum HPP,Weir,ERZURUM,26.2,26.2,0,26.2,41.5065881381766,40.4887006084687,"1647937,65853 (Tortum I) 1648716,093 (Tortum II)","4940225,03289 (Tortum I) 4945284,,863 (Tortum II)", DSİ-HES 
396,Hydropower Plant,NİKSAR ENERJİ ÜRETİM LİMİTED ŞİRKETİ,Niksar HPP,Weir,TOKAT,41.56,40.16,0,40.16,36.9905045208544,40.4846646439947,1251090.43333,4898854.2573,DSİ-HES
435,Hydropower Plant,ELEKTRİK ÜRETİM ANONİM ŞİRKETİ,Almus HPP,Dam,TOKAT,27,27,0,27,36.8999112940645,40.4068463298665,,,
444,Hydropower Plant,LASKAR ENERJİ ÜRETİM PAZARLAMA ANONİM ŞİRKETİ,İncirli Reg. Ve HPP,Weir,RİZE,28.53,25.2,0,25.2,40.954205,40.400763,,,
403,Hydropower Plant,BOYDAK ENERJİ ÜRETİM VE TİCARET A.Ş.,Tuna HPP,Dam,TOKAT,40.64,37.19,0,37.19,37.388945,40.377452,,,Google Maps
545,Hydropower Plant,TRABZON ENERJİ ÜRETİM VE TİCARET ANONİM ŞİRKETİ,Üçhanlar Regülatörü ve HPP,,TRABZON,12.09,11.371,0,11.371,40.768355,40.35965,,,
497,Hydropower Plant,ÜÇHARMANLAR ENERJİ ÜRETİM LİMİTED ŞİRKETİ,Üçharmanlar Reg. ve HPP,,TRABZON,17.44,16.64,0,16.64,40.788114,40.358276,,,
461,Hydropower Plant,BOYDAK ENERJİ ÜRETİM VE TİCARET A.Ş.,Sümer HPP,Weir,GİRESUN,22.664,21.6,0,21.6,38.5378925593499,40.3450176248011,,,Google Maps
393,Hydropower Plant,BEREKET ENERJİ ÜRETİM ANONİM ŞİRKETİ,Koyulhisar HPP,Weir,SİVAS,43.5,42,0,42,37.7825187842252,40.2904818053358,,,DSİ
509,Hydropower Plant,AKSA ENERJİ ÜRETİM A.Ş.,İncesu HPP,,ÇORUM,15.63,15,0,15,35.3297928423587,40.2735530636813,,,DSİ
360,Hydropower Plant,SUATA ELEKTRİK ÜRETİM LİMİTED ŞİRKETİ,Burçak Reg. Ve HPP,Weir,GİRESUN,72.45,66.29,0,66.29,38.372498,40.258569,,,
326,Hydropower Plant,ELEKTRİK ÜRETİM ANONİM ŞİRKETİ,Kılıçkaya HPP,Dam,ARTVİN,120,120,0,120,38.1911334361481,40.2413998924979,,,
412,Hydropower Plant,ELEKTRİK ÜRETİM ANONİM ŞİRKETİ,Çamlıgöze HPP,Dam,SİVAS,32,32,0,32,38.06776998,40.22849738,,,
557,Hydropower Plant,BAYBURT ENERJİ ÜRETİM VE TİCARET ANONİM ŞİRKETİ,Yıldırım HPP,,BAYBURT,11.01,10.677,0,10.677,40.500412,40.191988,,,
516,Hydropower Plant,BAYBURT ENERJİ ÜRETİM VE TİCARET ANONİM ŞİRKETİ,Bayburt HPP,,BAYBURT,15.036,14.631,0,14.631,40.308151,40.191463,,,
463,Hydropower Plant,ZORLU DOĞAL ELEKTRİK ÜRETİMİ A.Ş.,Kuzgun Regülatörü ve HPP,Weir,ERZURUM,20.9,20.899,0,20.899,41.063102246192,40.1866993627459,1601854.28543,4881764.53696,DSİ-HES
482,Hydropower Plant,TIRSAN ENERJİ ELEKTRİK ÜRETİM A.Ş.,Yakınca HPP,,GİRESUN,11.94,11.7,11.7,0,38.461761,40.183595,,,
414,Hydropower Plant,EBD ENERJİ ÜRETİM VE TİCARET ANONİM ŞİRKETİ,Narinkale HPP,Weir,KARS,32,30.4,0,30.4,43.2067402326725,40.1672836067672,,,DSİ
420,Hydropower Plant,EBD ENERJİ ÜRETİM VE TİCARET ANONİM ŞİRKETİ,Serap HPP,Weir,KARS,30,28.96,0,28.96,43.08739095,40.16399786,,,DSİ
328,Hydropower Plant,ELEKTRİK ÜRETİM ANONİM ŞİRKETİ,Muratlı HPP,Dam,ARTVİN,117.6,115,0,115,38.4948091570129,40.1616784397607,,,
407,Hydropower Plant,PURE ENERJİ ÜRETİMİ ANONİM ŞİRKETİ,Sefaköy HPP,Dam,KARS,35,33.11,0,33.11,43.36244736,40.14380907,,,
462,Hydropower Plant,HOŞDERE ENERJİ ÜRETİM VE TİCARET ANONİM ŞİRKETİ,Sena HPP,Weir,KARS,22.1,21.436,0,21.436,43.4358721322402,40.1135569929603,,,DSİ
484,Hydropower Plant,ZORLU DOĞAL ELEKTRİK ÜRETİMİ A.Ş.,İkizdere Regülatörü ve HPP,,RİZE,18.6,18.6,0,18.6,42.9423941368779,40.0885106890302,,,HES
494,Hydropower Plant,ZORLU DOĞAL ELEKTRİK ÜRETİMİ A.Ş.,Beyköy Regülatörü ve HPP,,ESKİŞEHİR,16.8,16.8,3.5527136788005E-15,16.8,30.7667172929749,40.0812676164335,,,HES
477,Hydropower Plant,ENERKA KALECİK ELEKTRİK ÜRETİM VE PAZARLAMA ANONİM ŞİRKETİ,Kalecik HPP,Weir,ANKARA,23.683,22.986,3.878,19.108,33.4481032894397,40.0640007738652,,,DSİ
401,Hydropower Plant,ELEKTRİK ÜRETİM ANONİM ŞİRKETİ,Yenice HPP,Dam,ANKARA,37.89,37.89,0,37.89,30.8523988581537,40.062801117783,,,
318,Hydropower Plant,ELEKTRİK ÜRETİM ANONİM ŞİRKETİ,Sarıyar H.P. HPP,Dam,ANKARA,160,160,0,160,31.4230129331566,40.0451829403345,,,
308,Hydropower Plant,ELEKTRİK ÜRETİM ANONİM ŞİRKETİ,Gökçekaya HPP,Dam,ESKİŞEHİR,278.4,278.4,0,278.4,31.0195340811092,40.0280338976462,,,
510,Hydropower Plant,YÜCEYURT ENERJİ ÜRETİM TİCARET VE SANAYİ ANONİM ŞİRKETİ,Araklı-I Reg. Ve HPP,,TRABZON,15.36,14.911,0,14.911,40.691084,39.994354,,,
469,Hydropower Plant,ELEKTRİK ÜRETİM ANONİM ŞİRKETİ,Manyas HPP,Dam,BALIKESİR,20.49,20.25,0,20.25,27.7817552368837,39.9749445602936,,,
533,Hydropower Plant,ORTAÇAĞ ENERJİ ÜRETİM ANONİM ŞİRKETİ,Ortaçağ Regülatörü ve HPP,,TRABZON,13.28,12.944,0,12.944,40.735974,39.929638,,,
493,Hydropower Plant,KUDRET ENERJİ ELEKTRİK ÜRETİM ANONİM ŞİRKETİ,Bangal reg ve Kuşluk HPP,,TRABZON,17.53,17,0,17,40.609631,39.914733,,,
456,Hydropower Plant,BÜKKÖY MADENCİLİK TURİZM İNŞAAT ELEKTRİK ÜRETİM SANAYİ VE TİCARET ANONİM ŞİRKETİ.,devecikonağı Barajı ve HPP,Dam,BURSA,23.61,23,0,23,28.5886751533651,39.8687267727207,,,HES
507,Hydropower Plant,ZORLU DOĞAL ELEKTRİK ÜRETİMİ A.Ş.,Tercan Regülatörü ve HPP,,ERZİNCAN,15,15,0,15,40.3925488484352,39.7583296267857,1547597.34023,4831010.55035,DSİ-HES
546,Hydropower Plant,AKGÜN ENERJİ ÜRETİM VE TİCARET ANONİM ŞİRKETİ,Üzümlü HPP,,ERZİNCAN,12.62,11.358,0.008000000000001,11.35,39.711456,39.746266,,,
371,Hydropower Plant,ELEKTRİK ÜRETİM ANONİM ŞİRKETİ,Kapulukaya HPP,Dam,KIRIKKALE,54,54,0,54,33.4865067177331,39.7305437141614,,,
520,Hydropower Plant,IC İÇTAŞ ELEKTRİK ÜRETİM ANONİM ŞİRKETİ,Yukarı Mercan HPP,,ERZİNCAN,14.2,14,0,14,39.605713,39.60992,,,
500,Hydropower Plant,ÖZCEVHER ENERJİ ELEKTRİK ÜRETİM ANONİM ŞİRKETİ,Cevher I-II HPP,,TRABZON,17.06,16.36,0,16.36,40.708003,39.5961,,,
540,Hydropower Plant,IC İÇTAŞ ENERJİ ÜRETİM VE TİCARET ANONİM ŞİRKETİ,Girlevik-2 Mercan HPP,,ERZİNCAN,12.33,12.288,0,12.288,39.6693820459025,39.5940395030813,,,HES
544,Hydropower Plant,CESE ELEKTRİK ÜRETİM ANONİM ŞİRKETİ,Mavi Reg. ve HPP,,TRABZON,11.6,11.39,0,11.39,40.769395,39.563141,,,
492,Hydropower Plant,CG ENERJİ ELEKTRİK ÜRETİMİ İNŞ. SANAYİ VE TİCARET LİMİTED ŞİRKETİ,Sema Reg. Ve HPP,,KIRIKKALE,17.7,17,0,17,33.395691,39.542176,,,
376,Hydropower Plant,AKDENİZLİ ELEKTRİK ÜRETİM ANONİM ŞİRKETİ,Bağıştaş II HPP,Weir,ERZİNCAN,49.8,48.6,0,48.6,38.4100792642267,39.4280398270606,,,DSİ
467,Hydropower Plant,ZORLU DOĞAL ELEKTRİK ÜRETİMİ A.Ş.,Mercan Regülatörü ve HPP,Weir,TUNCELİ,20.4,20.4,0,20.4,39.3066529551557,39.4145527242123,1456628.7109,4787437.64228,DSİ-HES
445,Hydropower Plant,ÖVÜNÇ ENERJİ VE ELEKTRİK ÜRETİM ANONİM ŞİRKETİ,Çermikler HPP,Dam,SİVAS,25.78,25,0,25,36.2858820035385,39.4015906438608,,,DSİ
350,Hydropower Plant,ELEKTRİK ÜRETİM ANONİM ŞİRKETİ,Kesikköprü,Dam,ANKARA,76,76,0,76,33.4197044270968,39.3976033665559,,,
443,Hydropower Plant,ÇAMLICA ELEKTRİK ÜRETİM ANONİM ŞİRKETİ,Saraçbendi HPP,Weir,SİVAS,26.28,25.48,0,25.48,36.2059505544309,39.3724400722502,,,
324,Hydropower Plant,ELEKTRİK ÜRETİM ANONİM ŞİRKETİ,Hirfanlı HPP,Dam,ANKARA,128,128,0,128,33.5208016387104,39.273164556908,,,
480,Hydropower Plant,SAF ENERJİ ELEKTRİK ÜRETİM SANAYİ VE TİCARET ANONİM ŞİRKETİ,Saf I HPP,,BİNGÖL,19.28,18.725,0,18.725,40.816956,39.200334,,,
315,Hydropower Plant,ELEKTRİK ÜRETİM ANONİM ŞİRKETİ,Özlüce HPP,Dam,ELAZIĞ,170,170,0,170,40.0871623466324,39.1268738297461,,,
404,Hydropower Plant,AK-ÖZLÜCE ELEKTRİK ÜRETİM TİCARET ANONİM ŞİRKETİ,Özlüce (Çoruh) HPP,Weir,ERZURUM,36.92,36.38,0,36.38,40.0871623466324,39.1268738297461,1586752.63857,4915392.9448,DSİ-HES
344,Hydropower Plant,MOSTAR ELEKTRİK ENERJİ ÜRETİM VE İLETİŞİM TOPTAN LİMİTED ŞİRKETİ,Koçköprü Barajı ve HPP,Dam,VAN,8.8,8.392,8.392,0,43.3317612662628,39.1223002680489,,,
366,Hydropower Plant,SEYRANTEPE HES ELEKTRİK ÜRETİMİ ANONİM ŞİRKETİ,Seyrantepe HPP,Dam,ELAZIĞ,58.78,56.84,0,56.84,39.8917218711525,38.9888747013726,,,DSİ
317,Hydropower Plant,ELEKTRİK ÜRETİM ANONİM ŞİRKETİ,Alpaslan I HPP,Dam,MUŞ,167,160,0,160,41.5161051118737,38.9851630584377,,,
423,Hydropower Plant,"LİMAK YATIRIM, ENERJİ ÜRETİM DAĞITIM İŞLETME HİZMETLERİ VE İNŞAAT ANONİM ŞİRKETİ",Uzunçayır Barajı ve HPP,Dam,TUNCELİ,84,82,82,0,39.5385798141126,38.979976160348,,,
336,Hydropower Plant,KAYSERİ ELEKTRİK ÜRETİM SANAYİ VE TİCARET A.Ş.,Yamula Barajı ve HPP,Dam,KAYSERİ,100,100,0,100,35.266861685519,38.9019948442912,,,
323,Hydropower Plant,DARENHES ELEKTRİK ÜRETİMİ ANONİM ŞİRKETİ,Tatar HPP,Dam,ELAZIĞ,131.17,128.22,0,128.22,39.8241966987087,38.8756889602414,,, DSİ 
299,Hydropower Plant,ELEKTRİK ÜRETİM ANONİM ŞİRKETİ,Keban HPP,Dam,ELAZIĞ,1330,1330,0,1330,38.7544432141021,38.8094854261162,,,
382,Hydropower Plant,SENERJİ ENERJİ ÜRETİM ANONİM ŞİRKETİ,Bayramhacılı HPP,Dam,KAYSERİ,48.5,47,0,47,34.9610380640615,38.7653297309539,,,
528,Hydropower Plant,YAPISAN ELEKTRİK ÜRETİM A.Ş.,Hacılar HPP,,MALATYA,13.34,13.34,0,13.34,37.474365,38.670561,,,
355,Hydropower Plant,ELEKTRİK ÜRETİM ANONİM ŞİRKETİ,Demirköprü HPP,Weir,MANİSA,69,69,0,69,28.3040550088892,38.6155107561001,,,HES
434,Hydropower Plant,TEKTUĞ ELEKTRİK ÜRETİM ANONİM ŞİRKETİ,Höçgören HPP,Weir,OSMANİYE,28.068,27.219,0,27.219,36.166649,38.58363,,,
479,Hydropower Plant,HİDRO-D HİDROELEKTRİK ENERJİ ÜRETİM ANONİM ŞİRKETİ,Çobanlı HPP,Weir,SİVAS,20.124,19.03,0,19.03,39.997396,38.575745,,,
457,Hydropower Plant,YILDIZLAR ENERJİ ELEKTRİK ÜRETİM ANONİM ŞİRKETİ,Kulp-I,Weir,DİYARBAKIR,23.628,22.92,0,22.92,41.071990401821,38.5450535854938,,,DSİ
537,Hydropower Plant,ALTEK ALARKO ELEKTRİK SANTRALLARI TESİS İŞLETME VE TİCARET ANONİM ŞİRKETİ,Tohma - Medik HPP,,MALATYA,14.16,12.5,0,12.5,38.1163870936395,38.5247479848974,,,HES
338,Hydropower Plant,ELEKTRİK ÜRETİM ANONİM ŞİRKETİ,Kralkızı HPP,Dam,DİYARBAKIR,94.5,94.5,0,94.5,40.0198922097112,38.3473638572546,,,
331,Hydropower Plant,ELEKTRİK ÜRETİM ANONİM ŞİRKETİ,Dicle HPP,Dam,DİYARBAKIR,110,110,0,110,40.1676767362691,38.2292789400901,,,
535,Hydropower Plant,ARISU ENERJİ ÜRETİM ANONİM ŞİRKETİ,Akbaş HPP,,DENİZLİ,13.047,12.502,0,12.502,29.3291645874605,38.2260900037758,,,
523,Hydropower Plant,DNZ ELEKTRİK ÜRETİM ANONİM ŞİRKETİ,Akkent Çalkuyucak HPP,,DENİZLİ,14.416,13.813,0,13.813,29.359589,38.20959,,,
313,Hydropower Plant,ELEKTRİK ÜRETİM ANONİM ŞİRKETİ,Batman HPP,Dam,DİYARBAKIR,202.455,198.475,2.8421709430404E-14,198.475,41.200824231547,38.1620853825106,,,
363,Hydropower Plant,ELEKTRİK ÜRETİM ANONİM ŞİRKETİ,Adıgüzel HPP,Dam,DENİZLİ,62,62,0,62,29.161492067569,38.1315010278416,,,
424,Hydropower Plant,ENTEK ENERJİ TEKNOLOJİLERİ SANAYİ VE TİCARET LİMİTED ŞİRKETİ,Cindere HPP,Dam,DENİZLİ,29.31,28.723,0,28.723,29.0327281604961,38.112567103145,,,
388,Hydropower Plant,BME BİRLEŞİK MÜTEAHHİTLER ENERJİ ÜRETİM VE TİCARET ANONİM ŞİRKETİ,Erenler HPP,Weir,ARTVİN,51.13,45,0,45,29.4406971891207,38.0714673834342,,,DSİ
433,Hydropower Plant,TEKTUĞ ELEKTRİK ÜRETİM ANONİM ŞİRKETİ,Sırımtaş HPP,Dam,ADIYAMAN,27.934,27.234,0,27.234,38.5460581280515,37.996795019939,,,
312,Hydropower Plant,ENERJİSA ENERJİ ÜRETİM ANONİM ŞİRKETİ,Kandil Enerji Projesi HPP,Dam,KAHRAMANMARAŞ,211.48,207.92,0,207.92,37.0228568348431,37.9757459241643,,,
415,Hydropower Plant,TÜM ENERJİ VE TİCARET ANONİM ŞİRKETİ,Pınar HPP,Weir,ADIYAMAN,31.5,30.09,0,30.09,42.6376943149655,37.9670168454284,,,DSİ
309,Hydropower Plant,LİMAK HİDROELEKTRİK SANTRAL YATIRIMLARI ANONİM ŞİRKETİ,Alkumru Barajı ve HPP,Dam,SİİRT,280.47,275.52,0,275.52,42.139821,37.963723,,,
345,Hydropower Plant,ELEKTRİK ÜRETİM ANONİM ŞİRKETİ,Çamlıca I HPP,Dam,KAYSERİ,94.5,84,0,84,35.4937834111194,37.9198210229256,,,
333,Hydropower Plant,ENERJİSA ENERJİ ÜRETİM ANONİM ŞİRKETİ,Sarıgüzel HPP,Dam,KAHRAMANMARAŞ,104.56,102.54,0,102.54,36.9708530655055,37.9001470905111,,,
429,Hydropower Plant,ÇAMLICA ELEKTRİK ÜRETİM ANONİM ŞİRKETİ,Çamlıca-III HPP,Weir,KAYSERİ,28.479,27.618,0,27.618,35.5050188008517,37.899192503245,1133363.4224,4601729.4606,DSİ-HES
488,Hydropower Plant,DERİN ENERJİ ÜRETİM SANAYİ VE TİCARET ANONİM ŞİRKETİ,Çamlıca II HPP,,KAYSERİ,17.88,17.58,0,17.58,35.5050188008517,37.899192503245,1131760.21933,4605559.33325,DSİ-HES
532,Hydropower Plant,KAİS ELEKTRİK ÜRETİM ANONİM ŞİRKETİ,Değirmen reg. ve HPP,,GÜMÜŞHANE,13.44,13,0,13,37.7600449343595,37.8618899608757,,,DSİ
495,Hydropower Plant,AVCILAR ENERJİ ELEKTRİK ÜRETİM ANONİM ŞİRKETİ,Avcılar HPP,,KAHRAMANMARAŞ,17.193,16.743,0,16.743,36.791153,37.855379,,,
321,Hydropower Plant,ENERJİSA ENERJİ ÜRETİM ANONİM ŞİRKETİ,Hacınınoğlu HPP,Weir,KAHRAMANMARAŞ,144.4,142.28,0,142.28,36.9704711954764,37.8300246647632,,,Google Maps
531,Hydropower Plant,AKSU ENERJİ VE TİCARET ANONİM ŞİRKETİ,Çayköy HPP,,ISPARTA,13,13,0,13,30.7152593887332,37.7973615643834,,, HES 
422,Hydropower Plant,AKÇAY HES ELEKTRİK ÜRETİM ANONİM ŞİRKETİ,Akçay HPP,Weir,AYDIN,31.98,28.78,0,28.78,28.3094310435923,37.7876991085209,,,Google Maps
464,Hydropower Plant,MAR-EN ENERJİ ÜRETİM TİCARET VE SANAYİ ANONİM ŞİRKETİ,Doğankaya Regülatörü ve HPP,Weir,ADIYAMAN,21.231,20.55,0,20.55,38.0284708045583,37.7335273818989,,,Google Maps
354,Hydropower Plant,AKENERJİ ELEKTRİK ÜRETİM ANONİM ŞİRKETİ (ESKİ ÜNVAN AKKUR ENERJİ ÜRETİM TİCARET SANAYİ ANONİM ŞİRKETİ),Feke II HPP,Dam,ADANA,71.4,69.34,0,69.34,35.8559772832428,37.7310664945326,,,DSİ 
452,Hydropower Plant,ARSAN HİDROELEKTRİK ÜRETİM A.Ş.,Kıy HPP,Weir,ADANA,24.6,23.8,0,23.8,35.741272,37.722392,,,
416,Hydropower Plant,CEYKAR ELEKTRİK ÜRETİM ANONİM ŞİRKETİ,Bağışlı HPP,Weir,HAKKARİ,30.9,29.571,0,29.571,44.055505529588,37.7118949729424,,,DSİ
343,Hydropower Plant,ENERJİSA ENERJİ ÜRETİM ANONİM ŞİRKETİ,Menge Barajı ve HPP,Dam,ADANA,86.8,85,0,85,35.7249786819934,37.7070067690903,,,
325,Hydropower Plant,ELEKTRİK ÜRETİM ANONİM ŞİRKETİ,Menzelet HPP,Dam,KAHRAMANMARAŞ,124,124,0,124,36.8481042756463,37.6739848222615,,,
519,Hydropower Plant,YEŞİLBAŞ ELEKTRİK ÜRETİM LİMİTED ŞİRKETİ,Yeşil reg. Ve HPP,,SİVAS,14.73,14.001,0,14.001,40.212203,37.657013,,,
514,Hydropower Plant,KAM ENERJİ ÜRETİM TİCARET VE SANAYİ ANONİM ŞİRKETİ,Torlar HPP,,KAHRAMANMARAŞ,15.294,14.834,0,14.834,36.622425,37.650665,,,
372,Hydropower Plant,BATIÇİM ENERJİ ELEKTRİK ÜRETİM ANONİM ŞİRKETİ,Kovada II HPP,Dam,ISPARTA,51.2,51.2,0,51.2,30.8609260220144,37.6399362394084,718770.262849,4577115.90231,DSİ - HES
448,Hydropower Plant,UHUD ENERJİ ÜRETİM TİCARET VE SANAYİ ANONİM ŞİRKETİ,Gökgedik Regülatörü ve HPP,Weir,KAHRAMANMARAŞ,24.882,24.266,0,24.266,36.585846,37.633266,,,
513,Hydropower Plant,KAREL ELEKTRİK ÜRETİM ANONİM ŞİRKETİ,Sayan Regulatörü ve HPP,,OSMANİYE,15.2,14.896,0,14.896,36.1804275737989,37.6266907553508,,,DSİ
369,Hydropower Plant,ELEKTRİK ÜRETİM ANONİM ŞİRKETİ,Kılavuzlu HPP,Dam,KAHRAMANMARAŞ,56.4,54,0,54,36.8011963906942,37.6239348181549,,,
320,Hydropower Plant,ENERJİSA ENERJİ ÜRETİM ANONİM ŞİRKETİ,Köprü HPP,Dam,ADANA,158.062,155.848,0,155.848,35.6135865458421,37.620411472785,1143160.76974,4574207.82218,DSİ - HES
397,Hydropower Plant,DEĞİRMENÜSTÜ ENERJİ ÜRETİM TİCARET VE SANAYİ ANONİM ŞİRKETİ,Değirmenüstü HPP,Weir,KAHRAMANMARAŞ,40.821,40.005,0,40.005,36.4450762,37.61843415,,,Google Maps
526,Hydropower Plant,KALE ENERJİ ÜRETİM TİCARET VE SANAYİ A.Ş.,Kale HPP,,KAHRAMANMARAŞ,35.34,34.14,34.14,0,36.492582,37.602808,,,
421,Hydropower Plant,TEKTUĞ ELEKTRİK ÜRETİM ANONİM ŞİRKETİ,Kalealtı HPP,Weir,OSMANİYE,29.84,28.814,0,28.814,36.150308481002,37.5488682009653,,,DSİ
394,Hydropower Plant,TEKTUĞ ELEKTRİK ÜRETİM ANONİM ŞİRKETİ,Andırın HPP,Weir,KAHRAMANMARAŞ,42,40.5,0,40.5,36.23909,37.539133,,,
451,Hydropower Plant,TEKTUĞ ELEKTRİK ÜRETİM ANONİM ŞİRKETİ,Kargılık HPP,Weir,KAHRAMANMARAŞ,24,23.9,0,23.9,36.2385089326905,37.5187732700317,,,Google Maps
539,Hydropower Plant,ASYA ENERJİ ELEKTRİK ÜRETİM SANAYİ VE TİCARET ANONİM ŞİRKETİ,Güneşli II Reg. ve HPP,,TRABZON,12.6,12.38,0,12.38,36.3660002518837,37.5180187671671,,,DSİ
379,Hydropower Plant,ELEKTRİK ÜRETİM ANONİM ŞİRKETİ,Kemer HPP,Dam,AYDIN,48,48,0,48,28.15775905,37.51256667,,,
384,Hydropower Plant,ELEKTRİK ÜRETİM ANONİM ŞİRKETİ,Çine Adnan Menderes HPP,Dam,AYDIN,47.2,46.26,0,46.26,28.1102604605749,37.508677569444,,,
307,Hydropower Plant,ELEKTRİK ÜRETİM ANONİM ŞİRKETİ,Sır HPP,Dam,KAHRAMANMARAŞ,283.5,283.5,0,283.5,36.59269068,37.49245344,,,
297,Hydropower Plant,ELEKTRİK ÜRETİM ANONİM ŞİRKETİ,Atatürk HPP,Dam,ŞANLIURFA,2405,2405,0,2405,38.3109163840406,37.4868946195387,,,
441,Hydropower Plant,EGENDA EGE ENERJİ ÜRETİM A.Ş.,Eğlence II HPP,Weir,ADANA,27.35,26,0,26,35.1955953998425,37.3760662119412,,,Google Maps
383,Hydropower Plant,ELEKTRİK ÜRETİM ANONİM ŞİRKETİ,Karacaören 2 HPP,Dam,BURDUR,46.4,46.4,0,46.4,30.8316895748745,37.3697838711393,,,
413,Hydropower Plant,ELEKTRİK ÜRETİM ANONİM ŞİRKETİ,Karacaören HPP,Dam,BURDUR,32,32,0,32,30.83168957,37.36978387,,,
349,Hydropower Plant,ALTEK ALARKO ELEKTRİK SANTRALLARI TESİS İŞLETME VE TİCARET ANONİM ŞİRKETİ,Karakuz Barajı ve HPP,Dam,ADANA,77.4,76,0,76,35.1260516140631,37.36425829943,,, DSİ 
373,Hydropower Plant,BEREKET ENERJİ ÜRETİM ANONİM ŞİRKETİ,Toros HPP,Weir,ADANA,52.05,49.99,0,49.99,35.000180717163,37.2811947610752,,,DSİ
322,Hydropower Plant,ELEKTRİK ÜRETİM ANONİM ŞİRKETİ,Aslantaş HPP,Dam,OSMANİYE,138,138,0,138,36.2744052944477,37.2706612549831,,,
304,Hydropower Plant,ELEKTRİK ÜRETİM ANONİM ŞİRKETİ,Berke HPP,Dam,OSMANİYE,510,510,0,510,36.274452,37.269135,,,
352,Hydropower Plant,ELEKTRİK ÜRETİM ANONİM ŞİRKETİ,Kadıncık 1 HPP,Weir,MERSİN,70,70,0,70,34.66918376,37.21601824,1070509.89479,4514594.31863,DSİ-HES
316,Hydropower Plant,ELEKTRİK ÜRETİM ANONİM ŞİRKETİ,Çatalan HPP,Dam,ADANA,168.9,168.9,0,168.9,35.2782037330485,37.1954083195689,,,
551,Hydropower Plant,GÖK ENERJİ ELEKTİRİK ÜRETİM ANONİM ŞİRKETİ,Gök HPP,,MERSİN,10.359,10.008,10.008,0,34.73465,37.161411,,,
458,Hydropower Plant,SEBİL ENERJİ ELEKTRİK ÜRETİM SANAYİ VE TİCARET ANONİM ŞİRKETİ,Sebil Reg. ve HPP,Weir,MERSİN,25.152,22.636,0,22.636,34.582214,37.141709,,,
517,Hydropower Plant,NAS ENERJİ A.Ş.,Çağ çağ HPP,,MARDİN,15.6,14.4,0,14.4,41.2390938112388,37.1256871692449,"1649961,59044 (Çağ çağ I) 1646692,161 (Çağ çağ II) 1644668,229 (Çağ çağ III)","4556222,86779 (Çağ çağ I) 4549995,385 (Çağ çağ II) 4545091,242( Çağ çağ III)",DSİ-HES
450,Hydropower Plant,EGENDA EGE ENERJİ ÜRETİM A.Ş.,Manavgat II HPP,Dam,ANTALYA,26.78,24.1,0,24.1,31.6905498601376,37.1096016198532,,,
454,Hydropower Plant,PAMUK HES ELEKTRİK ÜRETİM ANONİM ŞİRKETİ,Pamuk HPP,Weir,MERSİN,23.728,23.728,0,23.728,34.6525820270373,37.096598241009,,,DSİ
549,Hydropower Plant,PAK ENERJİ ÜRETİMİ SANAYİ VE TİCARET ANONİM ŞİRKETİ,Kavakçalı HPP,,MUĞLA,11.446,11.142,0,11.142,28.6623297954849,37.0954037440306,,,Google Maps
378,Hydropower Plant,ASSAN ALÜMİNYUM SANAYİ VE TİCARET ANONİM ŞİRKETİ,Manavgat Barajı ve HPP,Dam,ANTALYA,48,48,0,48,31.6583665154939,37.0835427961906,,,
499,Hydropower Plant,ENTEK ELEKTRİK ÜRETİMİ ANONİM ŞİRKETİ,Damlapınar HPP,,KARAMAN,17.104,16.424,0,16.424,32.8358100231943,37.0358886015011,,,Google Maps
365,Hydropower Plant,ELEKTRİK ÜRETİM ANONİM ŞİRKETİ,Seyhan 1 HPP,Dam,ADANA,60,60,0,60,35.3446499621929,37.0347226714126,,,
368,Hydropower Plant,ELEKTRİK ÜRETİM ANONİM ŞİRKETİ,Kadıncık 2 HPP,Weir,MERSİN,56,56,0,56,34.839876932273,37.0322380981314,1074692.3634,4508930.55824,DSİ - HES
555,Hydropower Plant,NUROL GÖKSU ELEKTRİK ÜRETİM  ANONİM ŞİRKETİ,Göksu HPP,,KONYA,11.04,10.8,0,10.8,32.68424,37.031062,,,
554,Hydropower Plant,BEREKET ENERJİ ÜRETİM ANONİM ŞİRKETİ,Gökyar HPP,,MUĞLA,11.628,10.95,0,10.95,29.0095012455973,36.9662072020364,,,DSİ
561,Hydropower Plant,TAYFURLAR ENERJİ ELEKTRİK ÜRETİM ANONİM ŞİRKETİ,Berdan HPP,,MERSİN,10.2,10.2,0,10.2,34.895907634425,36.9638613306404,1080356.12379,4499607.13859,DSİ-HES
439,Hydropower Plant,ELEKTRİK ÜRETİM ANONİM ŞİRKETİ,Kepez 1 HPP,Weir,ANTALYA,26.4,26.4,0,26.4,30.619468630876,36.9448334775138,,,HES
302,Hydropower Plant,ETİ ALÜMİNYUM ANONİM ŞİRKETİ,Oymapınar HPP,Dam,ANTALYA,540,540,0,540,31.5276922265993,36.9129273617875,,,
327,Hydropower Plant,ELEKTRİK ÜRETİM ANONİM ŞİRKETİ,Akköprü HPP,Dam,MUĞLA,118.6,115,0,115,28.9027421277597,36.8956303222206,,,
402,Hydropower Plant,BEREKET ENERJİ ÜRETİM ANONİM ŞİRKETİ,Dalaman I-II-III-IV-V HPP,Weir,MUĞLA,40.275,37.5,0,37.5,28.8833627883498,36.885437657289,,,HES
314,Hydropower Plant,ELEKTRİK ÜRETİM ANONİM ŞİRKETİ,Karkamış HPP,Dam,GAZİANTEP,189,189,0,189,38.0309476803658,36.8694347187648,,,
470,Hydropower Plant,AKSA ENERJİ ÜRETİM A.Ş.,Efrenk HPP,Dam,MERSİN,20.18,20,0,20,34.5491139490722,36.8562765280178,1049249.0149,4486188.38658,DSİ-HES
377,Hydropower Plant,ENERJİSA ENERJİ ÜRETİM ANONİM ŞİRKETİ,Dağpazarı Regülatörleri ve Birkapılı HPP,Weir,MERSİN,48.5,48.5,0,48.5,33.4431737632669,36.7206097881265,,,Google Maps
400,Hydropower Plant,KAREN KAHRAMAN MARAŞ ELEKTRİK ÜRETİM A.Ş.,Balkusan HPP,Dam,KARAMAN,39.9,38,0,38,32.96005,36.700078,,,
541,Hydropower Plant,DEDEGÖL ENERJİ YATIRIM ANONİM ŞİRKETİ,Kürce Reg. Ve HPP,,ANTALYA,12.292,12.046,0,12.046,30.319519,36.688244,,,
447,Hydropower Plant,BOYDAK ENERJİ ÜRETİM VE TİCARET A.Ş.,Yaprak HPP,Dam,AMASYA,25.174,24.28,0,24.28,32.4132521488279,36.6570210300494,,,
498,Hydropower Plant,KUZEY BİRLİK ENERJİ VE SANAYİ VE TİC.A.Ş.,Fethiye HPP,,MUĞLA,16.62,16.5,0,16.5,29.174352981804,36.6279121213866,566774.524595,4475271.57581,DSİ-HES
359,Hydropower Plant,KURTSUYU ELEKTRİK ÜRETİM ANONİM ŞİRKETİ,Daran HPP,Weir,KARAMAN,68.74,67.16,0,67.16,32.618408,36.619937,,,
559,Hydropower Plant,İDEAL ENERJİ ÜRETİMİ SANAYİ VE TİCARET ANONİM ŞİRKETİ,Karasu IV-2 HPP,,ERZİNCAN,10.92,10.35,0,10.35,33.3892950620706,36.5996049970448,,,DSİ
446,Hydropower Plant,ÖZGÜR ELEKTRİK ÜRETİM A.Ş.,"Azmak I Regülatörü ve HPP, Azmak II Regülatörü ve HPP, Kirpilik Regülatörü ve HPP",Weir,MERSİN,25.414,24.408,0,24.408,33.395441,36.597889,,,
342,Hydropower Plant,ÖZBEY HİJYENİK ÜRÜNLERİ SANAYİ VE TİCARET ANONİM ŞİRKETİ,Ermenek HPP,Dam,KARAMAN,1.26,1.12,1.12,0,33.0581252301356,36.5762415339929,,,
319,Hydropower Plant,ELEKTRİK ÜRETİM ANONİM ŞİRKETİ,Gezende HPP,Dam,MERSİN,159.375,159.375,0.004999999999995,159.37,33.273782423867,36.5604704813544,,,
399,Hydropower Plant,DİLER ELEKTRİK ÜRETİM ANONİM ŞİRKETİ,Dim HPP,Dam,ANTALYA,39.03,38.25,0,38.25,32.1329387238762,36.5573070755789,,,
334,Hydropower Plant,GÖLTAŞ ENERJİ ELEKTRİK ÜRETİM ANONİM ŞİRKETİ,Eşen I ve II HPP,Dam,MUĞLA,103.4,102.4,0,102.4,29.3287533774742,36.4360532820803,,,DSİ
522,Hydropower Plant,ENERJİSA ENERJİ ÜRETİM ANONİM ŞİRKETİ,Aksu Regülatörü ve Şahmallar HPP,,ANTALYA,16,14,0,14,32.435508904249,36.4236034646763,,,DSİ
503,Hydropower Plant,ENERJİSA ENERJİ ÜRETİM ANONİM ŞİRKETİ,Sugözü Regülatörü ve Kızıldüz HPP,,ANTALYA,16,16,0,16,32.404175,36.416862,,,
558,Hydropower Plant,ALPEREN ELEKTRİK ÜRETİM ANONİM ŞİRKETİ,Dağbaşı HPP,,MERSİN,10.756,10.433,0.002000000000001,10.431,32.776337,36.316232,,,
381,Hydropower Plant,BEYOBASI ENERJİ ÜRETİMİ ANONİM ŞİRKETİ,Otluca HPP,Weir,MERSİN,48.768,47.7,0,47.7,32.822183088087,36.2392119958553,,,DSİ
